start=new Date('2022-09-03T00:00:00.000Z').valueOf();
sats=[{"MEAN_MOTION":"15.06398854","CENTER_NAME":"EARTH","REF_FRAME":"TEME","TLE_LINE1":"1 48140U 21027BA  22245.79504946  .00001532  00000-0  12175-3 0  9998","DECAY_DATE":null,"RA_OF_ASC_NODE":"175.2555","MEAN_ANOMALY":"279.2896","COUNTRY_CODE":"US","OBJECT_TYPE":"PAYLOAD","GP_ID":"211587952","REV_AT_EPOCH":"7890","PERIAPSIS":"546.134","TLE_LINE2":"2 48140  53.0546 175.2555 0001564  80.8270 279.2896 15.06398854 78909","ECCENTRICITY":"0.00015640","CLASSIFICATION_TYPE":"U","EPOCH":"2022-09-02T19:04:52.273344","MEAN_ELEMENT_THEORY":"SGP4","NORAD_CAT_ID":"48140","MEAN_MOTION_DOT":"0.00001532","SITE":"AFETR","EPHEMERIS_TYPE":"0","FILE":"3555599","SEMIMAJOR_AXIS":"6925.352","BSTAR":"0.00012175000000","LAUNCH_DATE":"2021-04-07","ELEMENT_SET_NO":"999","MEAN_MOTION_DDOT":"0.0000000000000","INCLINATION":"53.0546","OBJECT_NAME":"STARLINK-2483","OBJECT_ID":"2021-027BA","ARG_OF_PERICENTER":"80.8270","RCS_SIZE":"LARGE","PERIOD":"95.592","APOAPSIS":"548.300","TIME_SYSTEM":"UTC"},{"SITE":"AFETR","EPHEMERIS_TYPE":"0","FILE":"3555599","MEAN_ELEMENT_THEORY":"SGP4","EPOCH":"2022-09-02T19:38:04.807680","NORAD_CAT_ID":"48141","MEAN_MOTION_DOT":"-0.00000062","TLE_LINE2":"2 48141  53.0542 175.1335 0001802  59.7254 300.3913 15.06391689 78920","ECCENTRICITY":"0.00018020","CLASSIFICATION_TYPE":"U","OBJECT_TYPE":"PAYLOAD","GP_ID":"211588201","REV_AT_EPOCH":"7892","PERIAPSIS":"545.991","RA_OF_ASC_NODE":"175.1335","DECAY_DATE":null,"MEAN_ANOMALY":"300.3913","COUNTRY_CODE":"US","CENTER_NAME":"EARTH","TLE_LINE1":"1 48141U 21027BB  22245.81811120 -.00000062  00000-0  14780-4 0  9990","REF_FRAME":"TEME","MEAN_MOTION":"15.06391689","RCS_SIZE":"LARGE","PERIOD":"95.593","APOAPSIS":"548.487","TIME_SYSTEM":"UTC","ARG_OF_PERICENTER":"59.7254","OBJECT_ID":"2021-027BB","OBJECT_NAME":"STARLINK-2484","INCLINATION":"53.0542","MEAN_MOTION_DDOT":"0.0000000000000","LAUNCH_DATE":"2021-04-07","ELEMENT_SET_NO":"999","SEMIMAJOR_AXIS":"6925.374","BSTAR":"0.00001478000000"},{"BSTAR":"0.00000318170000","SEMIMAJOR_AXIS":"6925.351","LAUNCH_DATE":"2021-04-07","ELEMENT_SET_NO":"999","MEAN_MOTION_DDOT":"0.0000000000000","INCLINATION":"53.0546","OBJECT_NAME":"STARLINK-2485","OBJECT_ID":"2021-027BC","ARG_OF_PERICENTER":"73.7646","PERIOD":"95.592","TIME_SYSTEM":"UTC","APOAPSIS":"548.276","RCS_SIZE":"LARGE","MEAN_MOTION":"15.06399080","TLE_LINE1":"1 48142U 21027BC  22245.75728662 -.00000234  00000-0  31817-5 0  9994","REF_FRAME":"TEME","CENTER_NAME":"EARTH","COUNTRY_CODE":"US","RA_OF_ASC_NODE":"155.4267","DECAY_DATE":null,"MEAN_ANOMALY":"286.3511","OBJECT_TYPE":"PAYLOAD","GP_ID":"211589452","PERIAPSIS":"546.157","REV_AT_EPOCH":"7918","ECCENTRICITY":"0.00015300","CLASSIFICATION_TYPE":"U","TLE_LINE2":"2 48142  53.0546 155.4267 0001530  73.7646 286.3511 15.06399080 79188","MEAN_MOTION_DOT":"-0.00000234","EPOCH":"2022-09-02T18:10:29.563968","NORAD_CAT_ID":"48142","MEAN_ELEMENT_THEORY":"SGP4","EPHEMERIS_TYPE":"0","FILE":"3555599","SITE":"AFETR"},{"MEAN_MOTION":"15.06400386","REF_FRAME":"TEME","TLE_LINE1":"1 48143U 21027BD  22245.87291443  .00003049  00000-0  22349-3 0  9994","CENTER_NAME":"EARTH","COUNTRY_CODE":"US","MEAN_ANOMALY":"281.8643","RA_OF_ASC_NODE":"109.9073","DECAY_DATE":null,"PERIAPSIS":"546.126","REV_AT_EPOCH":"7982","GP_ID":"211589691","OBJECT_TYPE":"PAYLOAD","CLASSIFICATION_TYPE":"U","ECCENTRICITY":"0.00015680","TLE_LINE2":"2 48143  53.0538 109.9073 0001568  78.2522 281.8643 15.06400386 79822","MEAN_MOTION_DOT":"0.00003049","NORAD_CAT_ID":"48143","MEAN_ELEMENT_THEORY":"SGP4","EPOCH":"2022-09-02T20:56:59.806752","FILE":"3555599","EPHEMERIS_TYPE":"0","SITE":"AFETR","BSTAR":"0.00022349000000","SEMIMAJOR_AXIS":"6925.347","LAUNCH_DATE":"2021-04-07","ELEMENT_SET_NO":"999","MEAN_MOTION_DDOT":"0.0000000000000","INCLINATION":"53.0538","OBJECT_ID":"2021-027BD","OBJECT_NAME":"STARLINK-2486","ARG_OF_PERICENTER":"78.2522","TIME_SYSTEM":"UTC","APOAPSIS":"548.298","PERIOD":"95.592","RCS_SIZE":"LARGE"},{"LAUNCH_DATE":"2021-04-07","ELEMENT_SET_NO":"999","MEAN_MOTION_DDOT":"0.0000000000000","SEMIMAJOR_AXIS":"6925.368","BSTAR":"0.00002614900000","ARG_OF_PERICENTER":"78.1163","RCS_SIZE":"LARGE","PERIOD":"95.593","TIME_SYSTEM":"UTC","APOAPSIS":"548.216","INCLINATION":"53.0556","OBJECT_NAME":"STARLINK-2487","OBJECT_ID":"2021-027BE","RA_OF_ASC_NODE":"155.3953","DECAY_DATE":null,"MEAN_ANOMALY":"281.9985","COUNTRY_CODE":"US","GP_ID":"211588452","OBJECT_TYPE":"PAYLOAD","PERIAPSIS":"546.251","REV_AT_EPOCH":"7917","MEAN_MOTION":"15.06393505","CENTER_NAME":"EARTH","REF_FRAME":"TEME","TLE_LINE1":"1 48144U 21027BE  22245.76467200  .00000108  00000-0  26149-4 0  9995","SITE":"AFETR","EPHEMERIS_TYPE":"0","FILE":"3555599","TLE_LINE2":"2 48144  53.0556 155.3953 0001419  78.1163 281.9985 15.06393505 79172","ECCENTRICITY":"0.00014190","CLASSIFICATION_TYPE":"U","EPOCH":"2022-09-02T18:21:07.660800","NORAD_CAT_ID":"48144","MEAN_ELEMENT_THEORY":"SGP4","MEAN_MOTION_DOT":"0.00000108"},{"ARG_OF_PERICENTER":"71.3979","RCS_SIZE":"LARGE","PERIOD":"95.592","TIME_SYSTEM":"UTC","APOAPSIS":"548.320","INCLINATION":"53.0541","OBJECT_ID":"2021-027BF","OBJECT_NAME":"STARLINK-2488","ELEMENT_SET_NO":"999","LAUNCH_DATE":"2021-04-07","MEAN_MOTION_DDOT":"0.0000000000000","SEMIMAJOR_AXIS":"6925.364","BSTAR":"0.00008866200000","SITE":"AFETR","EPHEMERIS_TYPE":"0","FILE":"3555599","TLE_LINE2":"2 48145  53.0541 155.3780 0001576  71.3979 288.7181 15.06395063 79184","ECCENTRICITY":"0.00015760","CLASSIFICATION_TYPE":"U","EPOCH":"2022-09-02T18:26:24.899136","MEAN_ELEMENT_THEORY":"SGP4","NORAD_CAT_ID":"48145","MEAN_MOTION_DOT":"0.00001039","DECAY_DATE":null,"RA_OF_ASC_NODE":"155.3780","MEAN_ANOMALY":"288.7181","COUNTRY_CODE":"US","OBJECT_TYPE":"PAYLOAD","GP_ID":"211588701","REV_AT_EPOCH":"7918","PERIAPSIS":"546.137","MEAN_MOTION":"15.06395063","CENTER_NAME":"EARTH","TLE_LINE1":"1 48145U 21027BF  22245.76834374  .00001039  00000-0  88662-4 0  9998","REF_FRAME":"TEME"},{"MEAN_MOTION":"15.06397089","TLE_LINE1":"1 48146U 21027BG  22245.50112105 -.00000892  00000-0 -40976-4 0  9996","REF_FRAME":"TEME","CENTER_NAME":"EARTH","COUNTRY_CODE":"US","MEAN_ANOMALY":"295.0872","DECAY_DATE":null,"RA_OF_ASC_NODE":"176.5786","REV_AT_EPOCH":"7886","PERIAPSIS":"546.068","OBJECT_TYPE":"PAYLOAD","GP_ID":"211556641","CLASSIFICATION_TYPE":"U","ECCENTRICITY":"0.00016670","TLE_LINE2":"2 48146  53.0547 176.5786 0001667  65.0290 295.0872 15.06397089 78861","MEAN_MOTION_DOT":"-0.00000892","MEAN_ELEMENT_THEORY":"SGP4","NORAD_CAT_ID":"48146","EPOCH":"2022-09-02T12:01:36.858720","FILE":"3555279","EPHEMERIS_TYPE":"0","SITE":"AFETR","BSTAR":"-0.00004097600000","SEMIMAJOR_AXIS":"6925.357","ELEMENT_SET_NO":"999","LAUNCH_DATE":"2021-04-07","MEAN_MOTION_DDOT":"0.0000000000000","INCLINATION":"53.0547","OBJECT_ID":"2021-027BG","OBJECT_NAME":"STARLINK-2489","ARG_OF_PERICENTER":"65.0290","TIME_SYSTEM":"UTC","APOAPSIS":"548.377","PERIOD":"95.592","RCS_SIZE":"LARGE"},{"OBJECT_NAME":"STARLINK-2490","OBJECT_ID":"2021-027BH","INCLINATION":"53.0543","RCS_SIZE":"MEDIUM","PERIOD":"95.592","TIME_SYSTEM":"UTC","APOAPSIS":"548.353","ARG_OF_PERICENTER":"74.8194","SEMIMAJOR_AXIS":"6925.331","BSTAR":"0.00006407800000","MEAN_MOTION_DDOT":"0.0000000000000","LAUNCH_DATE":"2021-04-07","ELEMENT_SET_NO":"999","MEAN_ELEMENT_THEORY":"SGP4","EPOCH":"2022-09-02T13:33:49.375584","NORAD_CAT_ID":"48147","MEAN_MOTION_DOT":"0.00000673","TLE_LINE2":"2 48147  53.0543 181.2906 0001671  74.8194 285.2980 15.06405721 78809","ECCENTRICITY":"0.00016710","CLASSIFICATION_TYPE":"U","SITE":"AFETR","EPHEMERIS_TYPE":"0","FILE":"3555599","CENTER_NAME":"EARTH","REF_FRAME":"TEME","TLE_LINE1":"1 48147U 21027BH  22245.56515481  .00000673  00000-0  64078-4 0  9991","MEAN_MOTION":"15.06405721","GP_ID":"211589192","OBJECT_TYPE":"PAYLOAD","PERIAPSIS":"546.039","REV_AT_EPOCH":"7880","DECAY_DATE":null,"RA_OF_ASC_NODE":"181.2906","MEAN_ANOMALY":"285.2980","COUNTRY_CODE":"US"},{"INCLINATION":"53.0537","OBJECT_NAME":"STARLINK-2491","OBJECT_ID":"2021-027BJ","ARG_OF_PERICENTER":"71.9307","PERIOD":"95.592","APOAPSIS":"548.324","TIME_SYSTEM":"UTC","RCS_SIZE":"LARGE","BSTAR":"0.00004517200000","SEMIMAJOR_AXIS":"6925.349","LAUNCH_DATE":"2021-04-07","ELEMENT_SET_NO":"999","MEAN_MOTION_DDOT":"0.0000000000000","ECCENTRICITY":"0.00016040","CLASSIFICATION_TYPE":"U","TLE_LINE2":"2 48148  53.0537 176.4110 0001604  71.9307 288.1856 15.06400007 78464","MEAN_MOTION_DOT":"0.00000391","EPOCH":"2022-09-02T12:49:22.808928","MEAN_ELEMENT_THEORY":"SGP4","NORAD_CAT_ID":"48148","EPHEMERIS_TYPE":"0","FILE":"3554855","SITE":"AFETR","MEAN_MOTION":"15.06400007","REF_FRAME":"TEME","TLE_LINE1":"1 48148U 21027BJ  22245.53429177  .00000391  00000-0  45172-4 0  9996","CENTER_NAME":"EARTH","COUNTRY_CODE":"US","RA_OF_ASC_NODE":"176.4110","DECAY_DATE":null,"MEAN_ANOMALY":"288.1856","GP_ID":"211524156","OBJECT_TYPE":"PAYLOAD","PERIAPSIS":"546.103","REV_AT_EPOCH":"7846"},{"SITE":"AFETR","FILE":"3555599","EPHEMERIS_TYPE":"0","EPOCH":"2022-09-02T17:54:34.908768","MEAN_ELEMENT_THEORY":"SGP4","NORAD_CAT_ID":"48149","MEAN_MOTION_DOT":"0.00000962","TLE_LINE2":"2 48149  53.0559 155.4696 0001489  74.4949 285.6205 15.06400339 79173","CLASSIFICATION_TYPE":"U","ECCENTRICITY":"0.00014890","PERIAPSIS":"546.181","REV_AT_EPOCH":"7917","GP_ID":"211588202","OBJECT_TYPE":"PAYLOAD","MEAN_ANOMALY":"285.6205","DECAY_DATE":null,"RA_OF_ASC_NODE":"155.4696","COUNTRY_CODE":"US","CENTER_NAME":"EARTH","REF_FRAME":"TEME","TLE_LINE1":"1 48149U 21027BK  22245.74623737  .00000962  00000-0  83473-4 0  9998","MEAN_MOTION":"15.06400339","RCS_SIZE":"MEDIUM","TIME_SYSTEM":"UTC","APOAPSIS":"548.244","PERIOD":"95.592","ARG_OF_PERICENTER":"74.4949","OBJECT_ID":"2021-027BK","OBJECT_NAME":"STARLINK-2492","INCLINATION":"53.0559","MEAN_MOTION_DDOT":"0.0000000000000","ELEMENT_SET_NO":"999","LAUNCH_DATE":"2021-04-07","SEMIMAJOR_AXIS":"6925.348","BSTAR":"0.00008347300000"}];
